*******************************************************************************
JPL/HORIZONS                1631 Kopff (1936 UC)           2023-Mar-05 15:31:21
Rec #:    1631 (+COV) Soln.date: 2022-Nov-25_02:49:50   # obs: 3566 (1926-2022)
 
IAU76/J2000 helio. ecliptic osc. elements (au, days, deg., period=Julian yrs):
 
  EPOCH=  2457397.5 ! 2016-Jan-10.00 (TDB)         Residual RMS= .25578
   EC= .2136481251705249   QR= 1.757486483465413   TP= 2457637.2715386697
   OM= 16.8295475496813    W=  315.1598835421324   IN= 7.494462929965115
   A= 2.234987338011414    MA= 289.2723703324313   ADIST= 2.712488192557414
   PER= 3.34134            N= .294979254           ANGMOM= .025123135
   DAN= 1.85235            DDN= 2.51379            L= 332.2351951
   B= -5.2769778           MOID= .755108           TP= 2016-Sep-05.7715386697
 
Asteroid physical parameters (km, seconds, rotational period in hours):
   GM= n.a.                RAD= 4.318              ROTPER= 6.683
   H= 12.23                G= .150                 B-V= n.a.
                           ALBEDO= .342            STYP= n.a.
 
ASTEROID comments: 
1: soln ref.= JPL#55, OCC=0
2: source=ORB
*******************************************************************************


*******************************************************************************
Ephemeris / WWW_USER Sun Mar  5 15:31:21 2023 Pasadena, USA      / Horizons
*******************************************************************************
Target body name: 1631 Kopff (1936 UC)            {source: JPL#55}
Center body name: Solar System Barycenter (0)     {source: DE441}
Center-site name: BODY CENTER
*******************************************************************************
Start time      : A.D. 2011-Oct-10 00:00:00.0000 TDB
Stop  time      : A.D. 2023-Mar-04 00:00:00.0000 TDB
Step-size       : 14400 minutes
*******************************************************************************
Center geodetic : 0.0, 0.0, 0.0                   {E-lon(deg),Lat(deg),Alt(km)}
Center cylindric: 0.0, 0.0, 0.0                   {E-lon(deg),Dxy(km),Dz(km)}
Center radii    : (undefined)
Small perturbers: Yes                             {source: SB441-N16}
Output units    : KM-S
Calendar mode   : Mixed Julian/Gregorian
Output type     : GEOMETRIC cartesian states
Output format   : 1 (position only)
Reference frame : Ecliptic of J2000.0
*******************************************************************************
Initial IAU76/J2000 heliocentric ecliptic osculating elements (au, days, deg.):
  EPOCH=  2457397.5 ! 2016-Jan-10.00 (TDB)         Residual RMS= .25578        
   EC= .2136481251705249   QR= 1.757486483465413   TP= 2457637.2715386697      
   OM= 16.8295475496813    W=  315.1598835421324   IN= 7.494462929965115       
  Equivalent ICRF heliocentric cartesian coordinates (au, au/d):
   X=-1.197719654739488E+00  Y=-1.585771703892056E+00  Z=-8.858343851509729E-01
  VX= 1.100936237915450E-02 VY=-3.462552224408002E-03 VZ=-2.532502376435505E-03
Asteroid physical parameters (km, seconds, rotational period in hours):        
   GM= n.a.                RAD= 4.318              ROTPER= 6.683               
   H= 12.23                G= .150                 B-V= n.a.                   
                           ALBEDO= .342            STYP= n.a.                  
*******************************************************************************
            JDTDB,            Calendar Date (TDB),                      X,                      Y,                      Z,
**************************************************************************************************************************
$$SOE
2457374.500000000, A.D. 2015-Dec-18 00:00:00.0000, -2.150824380663905E+08, -2.538090429205888E+08, -2.379487428614995E+07,
2457384.500000000, A.D. 2015-Dec-28 00:00:00.0000, -1.995830896514424E+08, -2.613825219038609E+08, -2.534015663620327E+07,
2457394.500000000, A.D. 2016-Jan-07 00:00:00.0000, -1.835341263412952E+08, -2.682369589966468E+08, -2.681583719938168E+07,
2457404.500000000, A.D. 2016-Jan-17 00:00:00.0000, -1.669621403638419E+08, -2.743279431773670E+08, -2.821531012777139E+07,
2457414.500000000, A.D. 2016-Jan-27 00:00:00.0000, -1.498974748111255E+08, -2.796106201496164E+08, -2.953177092959353E+07,
2457424.500000000, A.D. 2016-Feb-06 00:00:00.0000, -1.323745305627907E+08, -2.840399526110465E+08, -3.075823755875446E+07,
2457434.500000000, A.D. 2016-Feb-16 00:00:00.0000, -1.144320732513110E+08, -2.875710377873514E+08, -3.188757873191728E+07,
2457444.500000000, A.D. 2016-Feb-26 00:00:00.0000, -9.611353245103425E+07, -2.901594884794306E+08, -3.291255054488431E+07,
2457454.500000000, A.D. 2016-Mar-07 00:00:00.0000, -7.746728306794357E+07, -2.917618833729476E+08, -3.382584246468620E+07,
2457464.500000000, A.D. 2016-Mar-17 00:00:00.0000, -5.854689657559697E+07, -2.923362915494341E+08, -3.462013378121141E+07,
2457474.500000000, A.D. 2016-Mar-27 00:00:00.0000, -3.941134743625966E+07, -2.918428746930277E+08, -3.528816154022105E+07,
2457484.500000000, A.D. 2016-Apr-06 00:00:00.0000, -2.012515771224459E+07, -2.902445681148650E+08, -3.582280076742223E+07,
2457494.500000000, A.D. 2016-Apr-16 00:00:00.0000, -7.584605937054841E+05, -2.875078384342166E+08, -3.621715744653477E+07,
2457504.500000000, A.D. 2016-Apr-26 00:00:00.0000,  1.861303829352522E+07, -2.836035115879984E+08, -3.646467425135420E+07,
2457514.500000000, A.D. 2016-May-06 00:00:00.0000,  3.790822400888423E+07, -2.785076597639683E+08, -3.655924843608652E+07,
2457524.500000000, A.D. 2016-May-16 00:00:00.0000,  5.704088194066410E+07, -2.722025299538086E+08, -3.649536054601339E+07,
2457534.500000000, A.D. 2016-May-26 00:00:00.0000,  7.592017437472641E+07, -2.646774902122550E+08, -3.626821171429846E+07,
2457544.500000000, A.D. 2016-Jun-05 00:00:00.0000,  9.445130076503095E+07, -2.559299627928551E+08, -3.587386630129033E+07,
2457554.500000000, A.D. 2016-Jun-15 00:00:00.0000,  1.125363525858844E+08, -2.459663066934788E+08, -3.530939557115608E+07,
2457564.500000000, A.D. 2016-Jun-25 00:00:00.0000,  1.300753653750774E+08, -2.348026065044931E+08, -3.457301707899931E+07,
2457574.500000000, A.D. 2016-Jul-05 00:00:00.0000,  1.469675600595573E+08, -2.224653207928856E+08, -3.366422359017754E+07,
2457584.500000000, A.D. 2016-Jul-15 00:00:00.0000,  1.631127532114153E+08, -2.089917424387423E+08, -3.258389477837218E+07,
2457594.500000000, A.D. 2016-Jul-25 00:00:00.0000,  1.784129023612571E+08, -1.944302260075231E+08, -3.133438476789236E+07,
2457604.500000000, A.D. 2016-Aug-04 00:00:00.0000,  1.927737391719328E+08, -1.788401440492656E+08, -2.991957893368297E+07,
2457614.500000000, A.D. 2016-Aug-14 00:00:00.0000,  2.061064315559521E+08, -1.622915454111503E+08, -2.834491431193796E+07,
2457624.500000000, A.D. 2016-Aug-24 00:00:00.0000,  2.183292071794018E+08, -1.448645036213299E+08, -2.661735948462108E+07,
2457634.500000000, A.D. 2016-Sep-03 00:00:00.0000,  2.293688667661087E+08, -1.266481610609131E+08, -2.474535185525135E+07,
2457644.500000000, A.D. 2016-Sep-13 00:00:00.0000,  2.391621172871345E+08, -1.077394935790925E+08, -2.273869273802071E+07,
2457654.500000000, A.D. 2016-Sep-23 00:00:00.0000,  2.476566627084150E+08, -8.824183859378098E+07, -2.060840337231469E+07,
2457664.500000000, A.D. 2016-Oct-03 00:00:00.0000,  2.548120028901439E+08, -6.826324537457947E+07, -1.836654746772236E+07,
2457674.500000000, A.D. 2016-Oct-13 00:00:00.0000,  2.605999085276479E+08, -4.791471729408017E+07, -1.602602789337338E+07,
2457684.500000000, A.D. 2016-Oct-23 00:00:00.0000,  2.650045597600983E+08, -2.730842126734111E+07, -1.360036649291587E+07,
2457694.500000000, A.D. 2016-Nov-02 00:00:00.0000,  2.680223560488511E+08, -6.555938649693824E+06, -1.110347663437042E+07,
2457704.500000000, A.D. 2016-Nov-12 00:00:00.0000,  2.696614234960690E+08,  1.423337484460526E+07, -8.549437980755672E+06,
2457714.500000000, A.D. 2016-Nov-22 00:00:00.0000,  2.699408609709326E+08,  3.495386390603074E+07, -5.952282134054619E+06,
2457724.500000000, A.D. 2016-Dec-02 00:00:00.0000,  2.688897769759321E+08,  5.550484117459402E+07, -3.325796392336689E+06,
2457734.500000000, A.D. 2016-Dec-12 00:00:00.0000,  2.665461746820830E+08,  7.579162139395511E+07, -6.833510774354115E+05,
2457744.500000000, A.D. 2016-Dec-22 00:00:00.0000,  2.629557431015565E+08,  9.572631144391628E+07,  1.962246025015920E+06,
2457754.500000000, A.D. 2017-Jan-01 00:00:00.0000,  2.581706087484618E+08,  1.152283594830551E+08,  4.598866416139536E+06,
2457764.500000000, A.D. 2017-Jan-11 00:00:00.0000,  2.522480957034971E+08,  1.342248780302009E+08,  7.215148805015266E+06,
2457774.500000000, A.D. 2017-Jan-21 00:00:00.0000,  2.452495340524596E+08,  1.526507641943267E+08,  9.800559604674220E+06,
2457784.500000000, A.D. 2017-Jan-31 00:00:00.0000,  2.372391474085383E+08,  1.704486451649656E+08,  1.234542841823732E+07,
2457794.500000000, A.D. 2017-Feb-10 00:00:00.0000,  2.282830406971568E+08,  1.875686794956822E+08,  1.484096156784854E+07,
2457804.500000000, A.D. 2017-Feb-20 00:00:00.0000,  2.184483009204813E+08,  2.039682449762516E+08,  1.727923705092937E+07,
2457814.500000000, A.D. 2017-Mar-02 00:00:00.0000,  2.078022164162119E+08,  2.196115423257900E+08,  1.965318438184460E+07,
2457824.500000000, A.D. 2017-Mar-12 00:00:00.0000,  1.964116143099703E+08,  2.344691411479290E+08,  2.195655265357096E+07,
2457834.500000000, A.D. 2017-Mar-22 00:00:00.0000,  1.843423114568899E+08,  2.485174910991988E+08,  2.418386988981596E+07,
2457844.500000000, A.D. 2017-Apr-01 00:00:00.0000,  1.716586710958008E+08,  2.617384174465751E+08,  2.633039640372664E+07,
2457854.500000000, A.D. 2017-Apr-11 00:00:00.0000,  1.584232554584234E+08,  2.741186163786849E+08,  2.839207447010867E+07,
2457864.500000000, A.D. 2017-Apr-21 00:00:00.0000,  1.446965635083679E+08,  2.856491620024810E+08,  3.036547622719215E+07,
2457874.500000000, A.D. 2017-May-01 00:00:00.0000,  1.305368428179948E+08,  2.963250338950320E+08,  3.224775134775373E+07,
